SILU-1 (SILKROAD 1)     
1 42903U 17021F   18234.63570382  .00024662  00000-0  16555-3 0  9996
2 42903  42.7770 284.8406 0013173  45.5735  91.7669 15.74582671 60395
MIRATA                  
1 43015U 17073C   18232.87057986  .00001643  00000-0  13343-3 0  9998
2 43015  97.7040 161.1758 0259289  61.0561 301.6386 14.78246412 40690
MAKERSAT 0              
1 43016U 17073D   18232.78784631  .00001084  00000-0  89416-4 0  9997
2 43016  97.7068 161.2365 0260661  61.4124 301.3049 14.78224318 40673
ASTERIA                 
1 43020U 98067NH  18232.84788418  .00013074  00000-0  16122-3 0  9993
2 43020  51.6421  49.2148 0002697  61.4309 298.6956 15.60550781 42587
DELLINGR (RBLE)         
1 43021U 98067NJ  18232.98143883  .00007341  00000-0  10148-3 0  9992
2 43021  51.6407  50.8194 0002555  55.6558 304.4676 15.58288675 42576
OSIRIS-3U               
1 43027U 98067NL  18232.92194662  .00036361  00000-0  32860-3 0  9992
2 43027  51.6373  42.1319 0002204  33.6266 326.4870 15.67742152 42564
AEROCUBE 7B             
1 43042U 17071F   18234.87131536  .00002158  00000-0  64736-4 0  9997
2 43042  51.6391  76.5628 0005507 142.1187 218.0186 15.39213945 39870
AEROCUBE 7C             
1 43043U 17071G   18234.67653816  .00002131  00000-0  64053-4 0  9999
2 43043  51.6394  77.5178 0005580 143.2574 216.8794 15.39211587 39813
CHEFSAT                 
1 43044U 17071H   18234.70692800  .00005133  00000-0  13500-3 0  9995
2 43044  51.6397  76.2533 0005610 141.9958 218.1423 15.40330005 39838
ASGARDIA 1              
1 43049U 17071N   18234.78159061  .00002495  00000-0  72959-4 0  9997
2 43049  51.6397  76.7280 0002892 155.2658 204.8465 15.39333480 39826
ISARA                   
1 43050U 17071P   18234.78120546  .00003988  00000-0  10778-3 0  9993
2 43050  51.6391  75.9906 0002893 151.4634 208.6509 15.40130983 39838
FAUNA                   
1 43052U 17071R   18234.63409282  .00002771  00000-0  79536-4 0  9993
2 43052  51.6395  77.2536 0002858 150.4802 209.6344 15.39485593 39808
CORVUS BC3              
1 43118U 18004H   18234.92567285  .00000594  00000-0  28856-4 0  9993
2 43118  97.5279 297.6309 0009636 214.2122 145.8494 15.22345582 33864
MICROMAS-2A             
1 43131U 18004W   18234.85906488  .00001392  00000-0  62227-4 0  9999
2 43131  97.5290 297.7398 0008741 216.6686 143.3953 15.23007521 33860
GOMX4-B                 
1 43196U 18015E   18234.80200711  .00000368  00000-0  18210-4 0  9998
2 43196  97.3542   2.3945 0017369 285.4740  74.4580 15.23715163 30672
GOMX4-A                 
1 43197U 18015F   18234.54754809  .00000455  00000-0  21835-4 0  9996
2 43197  97.3550   2.1523 0017813 286.7859 138.7453 15.23719224 30643
1KUNS-PF                
1 43466U 98067NP  18234.82695176  .00009852  00000-0  14102-3 0  9990
2 43466  51.6396  45.1368 0000409  72.0507 288.0529 15.56884439 16077
UBAKUSAT                
1 43467U 98067NQ  18234.83675456  .00007114  00000-0  10524-3 0  9994
2 43467  51.6400  45.2050 0002616  30.1262 329.9880 15.56495541 16086
BATSU-CS1 (IRAZU)       
1 43468U 98067NR  18234.55742802  .00011971  00000-0  16768-3 0  9996
2 43468  51.6394  46.3367 0000309  78.6348 281.4678 15.57235003116029
CUBERRT                 
1 43546U 98067NU  18234.86472653  .00005791  00000-0  91096-4 0  9992
2 43546  51.6461  46.1247 0007064  89.7090 270.4702 15.55197989  6200
TEMPEST-D               
1 43547U 98067NV  18234.09559309  .00003444  00000-0  57639-4 0  9990
2 43547  51.6433  49.9846 0007292  84.2547 275.9275 15.54921319  5762
HALOSAT                 
1 43549U 98067NX  18234.48264720  .00006157  00000-0  97156-4 0  9997
2 43549  51.6453  48.0727 0006888  99.9247 260.2466 15.54979783  5839
ENDUROSAT ONE           
1 43551U 98067NZ  18234.66867466  .00010097  00000-0  15288-3 0  9999
2 43551  51.6435  47.0638 0007688 104.3313 255.8415 15.55296999  6271
EQUISAT                 
1 43552U 98067PA  18233.89795264  .00009190  00000-0  14015-3 0  9999
2 43552  51.6429  50.9169 0007955 101.1772 259.0102 15.55226979  6122
AEROCUBE 12A            
1 43556U 18046C   18232.99261375  .00001818  00000-0  79039-4 0  9990
2 43556  51.6438  62.7735 0009200  73.6351 286.5640 15.27714151  5424
AEROCUBE 12B            
1 43557U 18046D   18233.05798135  .00001557  00000-0  69556-4 0  9991
2 43557  51.6438  62.4598 0009191  73.8169 286.3821 15.27709758  5388
UITMSAT-1               
1 43589U 98067PD  18234.56172599  .00008489  00000-0  13237-3 0  9999
2 43589  51.6397  47.8580 0006649 112.1507 248.0190 15.54735650  1956
MAYA-1                  
1 43590U 98067PE  18234.56151162  .00008470  00000-0  13196-3 0  9998
2 43590  51.6397  47.8564 0006761 112.9814 247.1891 15.54763623  1885
BHUTAN-1                
1 43591U 98067PF  18234.56122505  .00008416  00000-0  13099-3 0  9990
2 43591  51.6398  47.8545 0006870 114.2784 245.8925 15.54799893  1889
SIRIUSSAT 1             
1 43595U 98067PG  18233.85846119  .00008897  00000-0  14012-3 0  9998
2 43595  51.6410  51.4016 0004657  70.1957 289.9497 15.54395168   952
